NORAD_CAT_ID,OBJECT_NAME,OBJECT_TYPE,EPOCH,MEAN_MOTION,ECCENTRICITY,INCLINATION,RA_OF_ASC_NODE,ARG_OF_PERICENTER,MEAN_ANOMALY,BSTAR,MEAN_MOTION_DOT,MEAN_MOTION_DDOT,TLE_LINE0,TLE_LINE1,TLE_LINE2,SEMIMAJOR_AXIS,PERIOD,APOGEE,PERIGEE,DECAYED
53542.0,STARLINK-4489,PAYLOAD,2024-03-30 19:04:12,15.08832994,0.0001823,53.2196,6.4763,91.6121,268.508,2.4795e-05,1.06e-06,0.0,0 STARLINK-4489,1 53542U 22101R   24090.79459120  .00000106  00000-0  24795-4 0  9995,2 53542  53.2196   6.4763 0001823  91.6121 268.5080 15.08832994 89282,6917.902,95.438,541.028,538.506,0.0
53542.0,STARLINK-4489,PAYLOAD,2024-03-30 22:14:59,15.08832882,0.0001678,53.2204,5.8833,103.9179,256.2,2.6751e-05,1.38e-06,0.0,0 STARLINK-4489,1 53542U 22101R   24090.92707199  .00000138  00000-0  26751-4 0  9991,2 53542  53.2204   5.8833 0001678 103.9179 256.2000 15.08832882 89991,6917.902,95.438,540.928,538.606,0.0
53542.0,STARLINK-4489,PAYLOAD,2024-03-31 04:36:30,15.08842228,0.000164,53.2202,4.6914,105.1601,254.9573,5.0996e-05,5.24e-06,0.0,0 STARLINK-4489,1 53542U 22101R   24091.19202514  .00000524  00000-0  50996-4 0  9999,2 53542  53.2202   4.6914 0001640 105.1601 254.9573 15.08842228 89343,6917.874,95.437,540.873,538.604,0.0
53542.0,STARLINK-4489,PAYLOAD,2024-03-31 10:58:03,15.08839397,0.0001451,53.2191,3.4999,100.2467,259.8689,0.00010628,1.404e-05,0.0,0 STARLINK-4489,1 53542U 22101R   24091.45698648  .00001404  00000-0  10628-3 0  9990,2 53542  53.2191   3.4999 0001451 100.2467 259.8689 15.08839397 90073,6917.882,95.438,540.751,538.743,0.0
53542.0,STARLINK-4489,PAYLOAD,2024-03-31 22:05:45,15.0884572,0.0001308,53.2182,1.4179,85.9073,274.2068,0.00011952,1.615e-05,0.0,0 STARLINK-4489,1 53542U 22101R   24091.92066220  .00001615  00000-0  11952-3 0  9992,2 53542  53.2182   1.4179 0001308  85.9073 274.2068 15.08845720 90141,6917.863,95.437,540.633,538.823,0.0
53542.0,STARLINK-4489,PAYLOAD,2024-04-01 10:48:49,15.08852187,0.0001376,53.2176,359.039,77.7413,282.3733,0.00017276,2.464e-05,0.0,0 STARLINK-4489,1 53542U 22101R   24092.45057743  .00002464  00000-0  17276-3 0  9999,2 53542  53.2176 359.0390 0001376  77.7413 282.3733 15.08852187 89538,6917.843,95.437,540.66,538.756,0.0
53542.0,STARLINK-4489,PAYLOAD,2024-04-01 17:10:22,15.08843088,0.0002024,53.2179,357.8548,83.5811,276.5412,0.00017659,2.524e-05,0.0,0 STARLINK-4489,1 53542U 22101R   24092.71554391  .00002524  00000-0  17659-3 0  9991,2 53542  53.2179 357.8548 0002024  83.5811 276.5412 15.08843088 89573,6917.871,95.437,541.136,538.336,0.0
53542.0,STARLINK-4489,PAYLOAD,2024-04-02 10:39:37,15.08840922,0.0001562,53.2183,354.582,89.3524,270.7647,-1.0827e-06,-3.05e-06,0.0,0 STARLINK-4489,1 53542U 22101R   24093.44418485 -.00000305  00000-0 -10827-5 0  9994,2 53542  53.2183 354.5820 0001562  89.3524 270.7647 15.08840922 89688,6917.878,95.437,540.823,538.662,0.0
53542.0,STARLINK-4489,PAYLOAD,2024-04-02 23:22:42,15.08839912,0.0001526,53.2183,352.2034,87.5967,272.5199,4.72e-06,-2.13e-06,0.0,0 STARLINK-4489,1 53542U 22101R   24093.97410612 -.00000213  00000-0  47200-5 0  9998,2 53542  53.2183 352.2034 0001526  87.5967 272.5199 15.08839912 90457,6917.881,95.438,540.801,538.69,0.0
53542.0,STARLINK-4489,PAYLOAD,2024-04-03 10:30:24,15.08839221,0.0001354,53.2172,350.1192,93.5143,266.6004,-4.2167e-05,-9.59e-06,0.0,0 STARLINK-4489,1 53542U 22101R   24094.43778682 -.00000959  00000-0 -42167-4 0  9998,2 53542  53.2172 350.1192 0001354  93.5143 266.6004 15.08839221 90529,6917.883,95.438,540.684,538.811,0.0
53542.0,STARLINK-4489,PAYLOAD,2024-04-03 16:51:57,15.08829468,0.0001205,53.2182,348.9298,90.3849,269.7281,0.00017358,2.475e-05,0.0,0 STARLINK-4489,1 53542U 22101R   24094.70275225  .00002475  00000-0  17358-3 0  9999,2 53542  53.2182 348.9298 0001205  90.3849 269.7281 15.08829468 89874,6917.913,95.438,540.611,538.944,0.0
53542.0,STARLINK-4489,PAYLOAD,2024-04-03 23:13:30,15.08829977,0.0001163,53.2182,347.7404,90.6635,269.4491,0.00016841,2.393e-05,0.0,0 STARLINK-4489,1 53542U 22101R   24094.96771370  .00002393  00000-0  16841-3 0  9994,2 53542  53.2182 347.7404 0001163  90.6635 269.4491 15.08829977 90607,6917.911,95.438,540.581,538.971,0.0
53542.0,STARLINK-4489,PAYLOAD,2024-04-04 10:21:11,15.08841434,0.000139,53.2186,345.6591,93.6436,266.4715,8.0447e-05,9.93e-06,0.0,0 STARLINK-4489,1 53542U 22101R   24095.43138826  .00000993  00000-0  80447-4 0  9998,2 53542  53.2186 345.6591 0001390  93.6436 266.4715 15.08841434 89986,6917.876,95.437,540.703,538.779,0.0
53542.0,STARLINK-4489,PAYLOAD,2024-04-04 23:04:16,15.08837686,0.0001405,53.2181,343.2793,96.6945,263.4207,0.00025214,3.727e-05,0.0,0 STARLINK-4489,1 53542U 22101R   24095.96130784  .00003727  00000-0  25214-3 0  9999,2 53542  53.2181 343.2793 0001405  96.6945 263.4207 15.08837686 90758,6917.887,95.438,540.724,538.78,0.0
53542.0,STARLINK-4489,PAYLOAD,2024-04-05 19:44:17,15.08841849,0.0001433,53.2186,339.4133,96.0544,264.0612,0.00010603,1.4e-05,0.0,0 STARLINK-4489,1 53542U 22101R   24096.82242582  .00001400  00000-0  10603-3 0  9997,2 53542  53.2186 339.4133 0001433  96.0544 264.0612 15.08841849 90199,6917.875,95.437,540.731,538.748,0.0
53542.0,STARLINK-4489,PAYLOAD,2024-04-05 21:19:40,15.08841543,0.0001425,53.2188,339.116,95.9241,264.1913,0.00010225,1.34e-05,0.0,0 STARLINK-4489,1 53542U 22101R   24096.88866606  .00001340  00000-0  10225-3 0  9995,2 53542  53.2188 339.1160 0001425  95.9241 264.1913 15.08841543 90894,6917.876,95.437,540.726,538.755,0.0
53542.0,STARLINK-4489,PAYLOAD,2024-04-06 02:05:49,15.08844683,0.0001394,53.2188,338.2235,95.5038,264.6114,8.7501e-05,1.105e-05,0.0,0 STARLINK-4489,1 53542U 22101R   24097.08738381  .00001105  00000-0  87501-4 0  9997,2 53542  53.2188 338.2235 0001394  95.5038 264.6114 15.08844683 90922,6917.866,95.437,540.695,538.767,0.0
53542.0,STARLINK-4489,PAYLOAD,2024-04-06 22:45:51,15.08836601,0.0001347,53.219,334.3604,88.1577,271.957,-8.5768e-07,-3.02e-06,0.0,0 STARLINK-4489,1 53542U 22101R   24097.94851202 -.00000302  00000-0 -85768-6 0  9995,2 53542  53.2190 334.3604 0001347  88.1577 271.9570 15.08836601 91059,6917.891,95.438,540.688,538.824,0.0
53542.0,STARLINK-4489,PAYLOAD,2024-04-07 08:18:10,15.08837979,0.0001352,53.2187,332.5764,88.448,271.6667,-6.7026e-05,-1.354e-05,0.0,0 STARLINK-4489,1 53542U 22101R   24098.34595366 -.00001354  00000-0 -67026-4 0  9999,2 53542  53.2187 332.5764 0001352  88.4480 271.6667 15.08837979 91114,6917.887,95.438,540.687,538.816,0.0
53542.0,STARLINK-4489,PAYLOAD,2024-04-07 22:36:38,15.08842606,0.0001028,53.2173,329.8997,92.3184,267.7926,-5.2387e-06,-3.71e-06,0.0,0 STARLINK-4489,1 53542U 22101R   24098.94210937 -.00000371  00000-0 -52387-5 0  9996,2 53542  53.2173 329.8997 0001028  92.3184 267.7926 15.08842606 91208,6917.872,95.437,540.449,539.026,0.0
53542.0,STARLINK-4489,PAYLOAD,2024-04-08 08:08:57,15.08838424,0.0001017,53.2172,328.1157,88.9064,271.2045,9.9371e-05,1.294e-05,0.0,0 STARLINK-4489,1 53542U 22101R   24099.33955010  .00001294  00000-0  99371-4 0  9994,2 53542  53.2172 328.1157 0001017  88.9064 271.2045 15.08838424 90577,6917.885,95.438,540.454,539.047,0.0
53542.0,STARLINK-4489,PAYLOAD,2024-04-09 00:02:48,15.08837636,0.0001064,53.2173,325.1421,83.9617,276.1497,9.9434e-05,1.295e-05,0.0,0 STARLINK-4489,1 53542U 22101R   24100.00195241  .00001295  00000-0  99434-4 0  9994,2 53542  53.2173 325.1421 0001064  83.9617 276.1497 15.08837636 91367,6917.888,95.438,540.489,539.017,0.0
53542.0,STARLINK-4489,PAYLOAD,2024-04-09 20:42:49,15.08840441,0.0001123,53.2175,321.2762,84.3546,275.7574,6.3384e-05,7.21e-06,0.0,0 STARLINK-4489,1 53542U 22101R   24100.86307276  .00000721  00000-0  63384-4 0  9999,2 53542  53.2175 321.2762 0001123  84.3546 275.7574 15.08840441 90803,6917.879,95.438,540.521,538.967,0.0
53542.0,STARLINK-4489,PAYLOAD,2024-04-10 07:50:31,15.08838815,0.0001255,53.2176,319.1945,81.4464,278.667,5.2396e-05,5.46e-06,0.0,0 STARLINK-4489,1 53542U 22101R   24101.32675447  .00000546  00000-0  52396-4 0  9995,2 53542  53.2176 319.1945 0001255  81.4464 278.6670 15.08838815 91561,6917.884,95.438,540.617,538.881,0.0
53542.0,STARLINK-4489,PAYLOAD,2024-04-10 20:33:36,15.0883981,0.0001161,53.2173,316.8126,93.1329,266.9796,5.9077e-05,6.53e-06,0.0,0 STARLINK-4489,1 53542U 22101R   24101.85667299  .00000653  00000-0  59077-4 0  9991,2 53542  53.2173 316.8126 0001161  93.1329 266.9796 15.08839810 91643,6917.881,95.438,540.549,538.943,0.0
53542.0,STARLINK-4489,PAYLOAD,2024-04-10 23:44:22,15.08841221,0.000118,53.2175,316.2177,93.7552,266.3575,6.6809e-05,7.76e-06,0.0,0 STARLINK-4489,1 53542U 22101R   24101.98915187  .00000776  00000-0  66809-4 0  9994,2 53542  53.2175 316.2177 0001180  93.7552 266.3575 15.08841221 90973,6917.877,95.437,540.558,538.925,0.0
53542.0,STARLINK-4489,PAYLOAD,2024-04-11 07:41:18,15.08840248,0.0001182,53.2173,314.7316,91.1963,268.9165,5.3689e-05,5.67e-06,0.0,0 STARLINK-4489,1 53542U 22101R   24102.32035306  .00000567  00000-0  53689-4 0  9999,2 53542  53.2173 314.7316 0001182  91.1963 268.9165 15.08840248 91713,6917.88,95.438,540.562,538.927,0.0
53542.0,STARLINK-4489,PAYLOAD,2024-04-11 20:24:23,15.08838043,0.0001216,53.2174,312.3531,89.7644,270.3488,4.406e-05,4.13e-06,0.0,0 STARLINK-4489,1 53542U 22101R   24102.85027537  .00000413  00000-0  44060-4 0  9997,2 53542  53.2174 312.3531 0001216  89.7644 270.3488 15.08838043 91797,6917.886,95.438,540.593,538.91,0.0
53542.0,STARLINK-4489,PAYLOAD,2024-04-11 23:35:09,15.08841173,0.0001268,53.2173,311.7586,91.0708,269.043,4.4689e-05,4.23e-06,0.0,0 STARLINK-4489,1 53542U 22101R   24102.98275363  .00000423  00000-0  44689-4 0  9991,2 53542  53.2173 311.7586 0001268  91.0708 269.0430 15.08841173 91816,6917.877,95.437,540.619,538.865,0.0
53542.0,STARLINK-4489,PAYLOAD,2024-04-13 20:05:58,15.08837456,0.0001174,53.2175,303.4309,90.7471,269.3656,1.4205e-05,-6.2e-07,0.0,0 STARLINK-4489,1 53542U 22101R   24104.83747883 -.00000062  00000-0  14205-4 0  9999,2 53542  53.2175 303.4309 0001174  90.7471 269.3656 15.08837456 91405,6917.888,95.438,540.565,538.941,0.0
